TOMORROW-S1             
1 60479U 24149M   26068.72470524  .00008620  00000+0  28856-3 0  9996
2 60479  97.3791 149.6044 0001819 207.2040 152.9106 15.31198362 86867
STARLINK-35244          
1 65829U 25221G   26068.78771409  .00016360  00000+0  56328-3 0  9999
2 65829  53.1596  90.3947 0001577  94.6614 265.4567 15.30198605 26026
